OBJECT_NAME,OBJECT_ID,EPOCH,MEAN_MOTION,ECCENTRICITY,INCLINATION,RA_OF_ASC_NODE,ARG_OF_PERICENTER,MEAN_ANOMALY,EPHEMERIS_TYPE,CLASSIFICATION_TYPE,NORAD_CAT_ID,ELEMENT_SET_NO,REV_AT_EPOCH,BSTAR,MEAN_MOTION_DOT,MEAN_MOTION_DDOT
HAWK-5A,2022-057AB,2026-06-05T16:33:52.673472,15.50965018,.00059983,97.6593,314.8005,112.8604,247.3281,0,U,52757,999,22456,.35047047E-3,.20257E-3,0
HAWK-6B,2023-011A,2026-06-05T10:40:08.951520,15.22821670,.00042477,40.4987,60.5579,298.5171,61.5210,0,U,55324,999,18605,.19854995E-3,.455E-4,0
HAWK-6C,2023-011C,2026-06-03T22:27:11.190816,15.22812682,.00048268,40.4982,66.1967,281.1122,78.9144,0,U,55326,999,18583,.20221376E-3,.4636E-4,0
HAWK-6A,2023-011D,2026-06-05T10:39:16.157664,15.22823281,.000438,40.4988,59.0238,287.8915,72.1417,0,U,55327,999,18606,.21190222E-3,.487E-4,0
HAWK-7A,2023-054P,2026-06-04T15:53:20.709600,15.27218144,.00046519,97.2694,43.3169,84.2511,275.9259,0,U,56191,999,17511,.70547065E-4,.1811E-4,0
HAWK-7B,2023-054R,2026-06-05T21:45:52.176960,15.27243133,.00040396,97.2736,42.7908,90.9983,269.1719,0,U,56193,999,17530,.27613875E-3,.7302E-4,0
HAWK-7C,2023-054Y,2026-06-05T21:45:42.080256,15.27240609,.00041417,97.2713,43.5629,83.0932,277.0778,0,U,56200,999,17530,.2730886E-3,.722E-4,0
